{
  "type": "FeatureCollection",
  "features": [
    {
      "type": "Feature",
      "properties": {
        "norad_id": 29869,
        "name": "FENGYUN 1C DEB",
        "group": "fengyun-1c-debris",
        "lat": 23.875461181867294,
        "lon": -89.25767069078309,
        "alt_km": 705.8917595037437,
        "timestamp": "2025-12-10T11:33:53.657278+00:00",
        "meta_object_name": "FENGYUN 1C DEB",
        "meta_object_id": "1999-025FP",
        "meta_epoch": "2025-12-09T18:52:06.448800",
        "meta_mean_motion": 14.36872664,
        "meta_eccentricity": 0.0087798,
        "meta_inclination": 98.8725,
        "meta_ra_of_asc_node": 273.9901,
        "meta_arg_of_pericenter": 19.7067,
        "meta_mean_anomaly": 7.9112,
        "meta_ephemeris_type": 0,
        "meta_classification_type": "U",
        "meta_norad_cat_id": 29869,
        "meta_element_set_no": 999,
        "meta_rev_at_epoch": 98778,
        "meta_bstar": 0.00078983,
        "meta_mean_motion_dot": 2.393e-05,
        "meta_mean_motion_ddot": 0,
        "tle_line1": "1 29869U 99025FP  25343.78618575  .00002393  00000+0  78983-3 0  9997",
        "tle_line2": "2 29869  98.8725 273.9901 0087798  19.7067   7.9112 14.36872664987781"
      },
      "geometry": {
        "type": "Point",
        "coordinates": [
          -89.25767069078309,
          23.875461181867294
        ]
      }
    },
    {
      "type": "Feature",
      "properties": {
        "norad_id": 29870,
        "name": "FENGYUN 1C DEB",
        "group": "fengyun-1c-debris",
        "lat": 61.98653125559226,
        "lon": 151.71110613952132,
        "alt_km": 776.6254130051948,
        "timestamp": "2025-12-10T11:33:53.657288+00:00",
        "meta_object_name": "FENGYUN 1C DEB",
        "meta_object_id": "1999-025FQ",
        "meta_epoch": "2025-12-09T10:33:02.627136",
        "meta_mean_motion": 14.28978976,
        "meta_eccentricity": 0.01196553,
        "meta_inclination": 98.4595,
        "meta_ra_of_asc_node": 314.4551,
        "meta_arg_of_pericenter": 202.1563,
        "meta_mean_anomaly": 317.3146,
        "meta_ephemeris_type": 0,
        "meta_classification_type": "U",
        "meta_norad_cat_id": 29870,
        "meta_element_set_no": 999,
        "meta_rev_at_epoch": 98546,
        "meta_bstar": 9.6196394e-05,
        "meta_mean_motion_dot": 2.19e-06,
        "meta_mean_motion_ddot": 0,
        "tle_line1": "1 29870U 99025FQ  25343.43961374  .00000219  00000+0  96196-4 0  9991",
        "tle_line2": "2 29870  98.4595 314.4551 0119655 202.1563 317.3146 14.28978976985465"
      },
      "geometry": {
        "type": "Point",
        "coordinates": [
          151.71110613952132,
          61.98653125559226
        ]
      }
    },
    {
      "type": "Feature",
      "properties": {
        "norad_id": 29871,
        "name": "FENGYUN 1C DEB",
        "group": "fengyun-1c-debris",
        "lat": -42.050123423954965,
        "lon": -54.313499168440245,
        "alt_km": 794.6990993005629,
        "timestamp": "2025-12-10T11:33:53.657299+00:00",
        "meta_object_name": "FENGYUN 1C DEB",
        "meta_object_id": "1999-025FR",
        "meta_epoch": "2025-12-09T14:55:21.074016",
        "meta_mean_motion": 14.42609926,
        "meta_eccentricity": 0.0058532,
        "meta_inclination": 98.9729,
        "meta_ra_of_asc_node": 296.5885,
        "meta_arg_of_pericenter": 116.6019,
        "meta_mean_anomaly": 56.7647,
        "meta_ephemeris_type": 0,
        "meta_classification_type": "U",
        "meta_norad_cat_id": 29871,
        "meta_element_set_no": 999,
        "meta_rev_at_epoch": 98656,
        "meta_bstar": 0.0014512,
        "meta_mean_motion_dot": 4.875e-05,
        "meta_mean_motion_ddot": 0,
        "tle_line1": "1 29871U 99025FR  25343.62177169  .00004875  00000+0  14512-2 0  9996",
        "tle_line2": "2 29871  98.9729 296.5885 0058532 116.6019  56.7647 14.42609926986565"
      },
      "geometry": {
        "type": "Point",
        "coordinates": [
          -54.313499168440245,
          -42.050123423954965
        ]
      }
    },
    {
      "type": "Feature",
      "properties": {
        "norad_id": 29872,
        "name": "FENGYUN 1C DEB",
        "group": "fengyun-1c-debris",
        "lat": 16.933724146838006,
        "lon": -176.92932087759232,
        "alt_km": 917.4807278243743,
        "timestamp": "2025-12-10T11:33:53.657309+00:00",
        "meta_object_name": "FENGYUN 1C DEB",
        "meta_object_id": "1999-025FS",
        "meta_epoch": "2025-12-10T00:47:06.639072",
        "meta_mean_motion": 14.3893142,
        "meta_eccentricity": 0.0235509,
        "meta_inclination": 98.3461,
        "meta_ra_of_asc_node": 0.0715,
        "meta_arg_of_pericenter": 321.7548,
        "meta_mean_anomaly": 36.7134,
        "meta_ephemeris_type": 0,
        "meta_classification_type": "U",
        "meta_norad_cat_id": 29872,
        "meta_element_set_no": 999,
        "meta_rev_at_epoch": 98553,
        "meta_bstar": 0.00087351,
        "meta_mean_motion_dot": 3.672e-05,
        "meta_mean_motion_ddot": 0,
        "tle_line1": "1 29872U 99025FS  25344.03271573  .00003672  00000+0  87351-3 0  9993",
        "tle_line2": "2 29872  98.3461   0.0715 0235509 321.7548  36.7134 14.38931420985537"
      },
      "geometry": {
        "type": "Point",
        "coordinates": [
          -176.92932087759232,
          16.933724146838006
        ]
      }
    },
    {
      "type": "Feature",
      "properties": {
        "norad_id": 29873,
        "name": "FENGYUN 1C DEB",
        "group": "fengyun-1c-debris",
        "lat": -33.024243550723654,
        "lon": 18.282030741061142,
        "alt_km": 839.6166648985427,
        "timestamp": "2025-12-10T11:33:53.657320+00:00",
        "meta_object_name": "FENGYUN 1C DEB",
        "meta_object_id": "1999-025FT",
        "meta_epoch": "2025-12-10T04:17:51.954720",
        "meta_mean_motion": 13.98145166,
        "meta_eccentricity": 0.0092499,
        "meta_inclination": 99.4423,
        "meta_ra_of_asc_node": 204.1804,
        "meta_arg_of_pericenter": 205.9894,
        "meta_mean_anomaly": 284.0393,
        "meta_ephemeris_type": 0,
        "meta_classification_type": "U",
        "meta_norad_cat_id": 29873,
        "meta_element_set_no": 999,
        "meta_rev_at_epoch": 96279,
        "meta_bstar": 0.00017753,
        "meta_mean_motion_dot": 2.15e-06,
        "meta_mean_motion_ddot": 0,
        "tle_line1": "1 29873U 99025FT  25344.17907355  .00000215  00000+0  17753-3 0  9992",
        "tle_line2": "2 29873  99.4423 204.1804 0092499 205.9894 284.0393 13.98145166962797"
      },
      "geometry": {
        "type": "Point",
        "coordinates": [
          18.282030741061142,
          -33.024243550723654
        ]
      }
    },
    {
      "type": "Feature",
      "properties": {
        "norad_id": 29874,
        "name": "FENGYUN 1C DEB",
        "group": "fengyun-1c-debris",
        "lat": -3.3930766095057705,
        "lon": 60.95650719213124,
        "alt_km": 874.4153993240998,
        "timestamp": "2025-12-10T11:33:53.657330+00:00",
        "meta_object_name": "FENGYUN 1C DEB",
        "meta_object_id": "1999-025FU",
        "meta_epoch": "2025-12-10T04:41:44.490912",
        "meta_mean_motion": 14.28744183,
        "meta_eccentricity": 0.0105307,
        "meta_inclination": 98.3791,
        "meta_ra_of_asc_node": 241.1822,
        "meta_arg_of_pericenter": 358.1608,
        "meta_mean_anomaly": 153.9668,
        "meta_ephemeris_type": 0,
        "meta_classification_type": "U",
        "meta_norad_cat_id": 29874,
        "meta_element_set_no": 999,
        "meta_rev_at_epoch": 96811,
        "meta_bstar": 0.0044171,
        "meta_mean_motion_dot": 0.00011777,
        "meta_mean_motion_ddot": 0,
        "tle_line1": "1 29874U 99025FU  25344.19565383  .00011777  00000+0  44171-2 0  9994",
        "tle_line2": "2 29874  98.3791 241.1822 0105307 358.1608 153.9668 14.28744183968111"
      },
      "geometry": {
        "type": "Point",
        "coordinates": [
          60.95650719213124,
          -3.3930766095057705
        ]
      }
    },
    {
      "type": "Feature",
      "properties": {
        "norad_id": 29875,
        "name": "FENGYUN 1C DEB",
        "group": "fengyun-1c-debris",
        "lat": 59.1488298526744,
        "lon": 21.669812152672105,
        "alt_km": 744.1473175974697,
        "timestamp": "2025-12-10T11:33:53.657340+00:00",
        "meta_object_name": "FENGYUN 1C DEB",
        "meta_object_id": "1999-025FV",
        "meta_epoch": "2025-12-10T03:06:46.100736",
        "meta_mean_motion": 14.24877878,
        "meta_eccentricity": 0.0083224,
        "meta_inclination": 98.4055,
        "meta_ra_of_asc_node": 35.6642,
        "meta_arg_of_pericenter": 70.8481,
        "meta_mean_anomaly": 344.1214,
        "meta_ephemeris_type": 0,
        "meta_classification_type": "U",
        "meta_norad_cat_id": 29875,
        "meta_element_set_no": 999,
        "meta_rev_at_epoch": 98285,
        "meta_bstar": 3.9483e-05,
        "meta_mean_motion_dot": 5.5e-07,
        "meta_mean_motion_ddot": 0,
        "tle_line1": "1 29875U 99025FV  25344.12970024  .00000055  00000+0  39483-4 0  9999",
        "tle_line2": "2 29875  98.4055  35.6642 0083224  70.8481 344.1214 14.24877878982854"
      },
      "geometry": {
        "type": "Point",
        "coordinates": [
          21.669812152672105,
          59.1488298526744
        ]
      }
    }
  ]
}